[{"OBJECT_NAME":"BEIDOU-2 IGSO-1 (C06)","OBJECT_ID":"2010-036A","EPOCH":"2026-04-23T19:55:57.482688","MEAN_MOTION":1.00288096,"ECCENTRICITY":0.00583551,"INCLINATION":54.2917,"RA_OF_ASC_NODE":163.4511,"ARG_OF_PERICENTER":224.0017,"MEAN_ANOMALY":229.7808,"EPHEMERIS_TYPE":0,"CLASSIFICATION_TYPE":"U","NORAD_CAT_ID":36828,"ELEMENT_SET_NO":999,"REV_AT_EPOCH":5755,"BSTAR":0,"MEAN_MOTION_DOT":-1.09e-6,"MEAN_MOTION_DDOT":0},{"OBJECT_NAME":"BEIDOU-2 G4 (C04)","OBJECT_ID":"2010-057A","EPOCH":"2026-04-26T12:37:01.421760","MEAN_MOTION":1.00270097,"ECCENTRICITY":0.0006521,"INCLINATION":3.521,"RA_OF_ASC_NODE":69.2327,"ARG_OF_PERICENTER":213.0817,"MEAN_ANOMALY":281.3977,"EPHEMERIS_TYPE":0,"CLASSIFICATION_TYPE":"U","NORAD_CAT_ID":37210,"ELEMENT_SET_NO":999,"REV_AT_EPOCH":5677,"BSTAR":0,"MEAN_MOTION_DOT":-1.23e-6,"MEAN_MOTION_DDOT":0},{"OBJECT_NAME":"BEIDOU-2 IGSO-2 (C07)","OBJECT_ID":"2010-068A","EPOCH":"2026-04-26T08:55:48.224352","MEAN_MOTION":1.00299816,"ECCENTRICITY":0.0053173,"INCLINATION":47.6454,"RA_OF_ASC_NODE":272.4714,"ARG_OF_PERICENTER":211.4981,"MEAN_ANOMALY":329.0054,"EPHEMERIS_TYPE":0,"CLASSIFICATION_TYPE":"U","NORAD_CAT_ID":37256,"ELEMENT_SET_NO":999,"REV_AT_EPOCH":5627,"BSTAR":0,"MEAN_MOTION_DOT":-2.19e-6,"MEAN_MOTION_DDOT":0},{"OBJECT_NAME":"BEIDOU-2 IGSO-3 (C08)","OBJECT_ID":"2011-013A","EPOCH":"2026-04-24T17:34:48.622080","MEAN_MOTION":1.00280536,"ECCENTRICITY":0.00337019,"INCLINATION":62.3393,"RA_OF_ASC_NODE":40.6572,"ARG_OF_PERICENTER":188.3614,"MEAN_ANOMALY":355.5484,"EPHEMERIS_TYPE":0,"CLASSIFICATION_TYPE":"U","NORAD_CAT_ID":37384,"ELEMENT_SET_NO":999,"REV_AT_EPOCH":5512,"BSTAR":0,"MEAN_MOTION_DOT":-2.01e-6,"MEAN_MOTION_DDOT":0},{"OBJECT_NAME":"BEIDOU-2 IGSO-4 (C09)","OBJECT_ID":"2011-038A","EPOCH":"2026-04-20T22:49:52.538592","MEAN_MOTION":1.0025708,"ECCENTRICITY":0.01583758,"INCLINATION":54.5868,"RA_OF_ASC_NODE":166.1972,"ARG_OF_PERICENTER":231.6843,"MEAN_ANOMALY":245.893,"EPHEMERIS_TYPE":0,"CLASSIFICATION_TYPE":"U","NORAD_CAT_ID":37763,"ELEMENT_SET_NO":999,"REV_AT_EPOCH":5407,"BSTAR":0,"MEAN_MOTION_DOT":-1.5e-7,"MEAN_MOTION_DDOT":0},{"OBJECT_NAME":"BEIDOU-2 IGSO-5 (C10)","OBJECT_ID":"2011-073A","EPOCH":"2026-04-24T21:42:21.566592","MEAN_MOTION":1.0026042,"ECCENTRICITY":0.01105716,"INCLINATION":47.7775,"RA_OF_ASC_NODE":272.2003,"ARG_OF_PERICENTER":220.5837,"MEAN_ANOMALY":139.3975,"EPHEMERIS_TYPE":0,"CLASSIFICATION_TYPE":"U","NORAD_CAT_ID":37948,"ELEMENT_SET_NO":999,"REV_AT_EPOCH":5260,"BSTAR":0,"MEAN_MOTION_DOT":-1.95e-6,"MEAN_MOTION_DDOT":0},{"OBJECT_NAME":"BEIDOU-2 G5 (C05)","OBJECT_ID":"2012-008A","EPOCH":"2026-04-26T12:08:10.743360","MEAN_MOTION":1.00272955,"ECCENTRICITY":0.0012301,"INCLINATION":3.4471,"RA_OF_ASC_NODE":69.9871,"ARG_OF_PERICENTER":265.8643,"MEAN_ANOMALY":119.4374,"EPHEMERIS_TYPE":0,"CLASSIFICATION_TYPE":"U","NORAD_CAT_ID":38091,"ELEMENT_SET_NO":999,"REV_AT_EPOCH":5185,"BSTAR":0,"MEAN_MOTION_DOT":4.7e-7,"MEAN_MOTION_DDOT":0},{"OBJECT_NAME":"BEIDOU-2 M3 (C11)","OBJECT_ID":"2012-018A","EPOCH":"2026-04-26T02:29:28.923072","MEAN_MOTION":1.86229687,"ECCENTRICITY":0.0019715,"INCLINATION":55.8032,"RA_OF_ASC_NODE":306.6299,"ARG_OF_PERICENTER":278.119,"MEAN_ANOMALY":81.6621,"EPHEMERIS_TYPE":0,"CLASSIFICATION_TYPE":"U","NORAD_CAT_ID":38250,"ELEMENT_SET_NO":999,"REV_AT_EPOCH":9497,"BSTAR":0,"MEAN_MOTION_DOT":-5.4e-7,"MEAN_MOTION_DDOT":0},{"OBJECT_NAME":"BEIDOU-2 M4 (C12)","OBJECT_ID":"2012-018B","EPOCH":"2026-04-23T08:25:46.067232","MEAN_MOTION":1.86229378,"ECCENTRICITY":0.00110642,"INCLINATION":55.7057,"RA_OF_ASC_NODE":305.9412,"ARG_OF_PERICENTER":284.1649,"MEAN_ANOMALY":75.7156,"EPHEMERIS_TYPE":0,"CLASSIFICATION_TYPE":"U","NORAD_CAT_ID":38251,"ELEMENT_SET_NO":999,"REV_AT_EPOCH":9491,"BSTAR":0,"MEAN_MOTION_DOT":-4.0e-7,"MEAN_MOTION_DDOT":0},{"OBJECT_NAME":"BEIDOU-2 M6 (C14)","OBJECT_ID":"2012-050B","EPOCH":"2026-04-25T05:00:54.365184","MEAN_MOTION":1.86230847,"ECCENTRICITY":0.00144897,"INCLINATION":56.5004,"RA_OF_ASC_NODE":64.6451,"ARG_OF_PERICENTER":348.5468,"MEAN_ANOMALY":11.3943,"EPHEMERIS_TYPE":0,"CLASSIFICATION_TYPE":"U","NORAD_CAT_ID":38775,"ELEMENT_SET_NO":999,"REV_AT_EPOCH":9232,"BSTAR":0,"MEAN_MOTION_DOT":-2.7e-7,"MEAN_MOTION_DDOT":0},{"OBJECT_NAME":"BEIDOU-2 G6 (C02)","OBJECT_ID":"2012-059A","EPOCH":"2026-04-26T12:15:17.560224","MEAN_MOTION":1.0027463,"ECCENTRICITY":0.0010559,"INCLINATION":4.293,"RA_OF_ASC_NODE":74.0562,"ARG_OF_PERICENTER":313.9492,"MEAN_ANOMALY":94.2769,"EPHEMERIS_TYPE":0,"CLASSIFICATION_TYPE":"U","NORAD_CAT_ID":38953,"ELEMENT_SET_NO":999,"REV_AT_EPOCH":4939,"BSTAR":0,"MEAN_MOTION_DOT":-1.84e-6,"MEAN_MOTION_DDOT":0},{"OBJECT_NAME":"BEIDOU-3S IGSO-1S (C31)","OBJECT_ID":"2015-019A","EPOCH":"2026-04-22T23:45:28.549728","MEAN_MOTION":1.002611,"ECCENTRICITY":0.0037208,"INCLINATION":49.2998,"RA_OF_ASC_NODE":296.1212,"ARG_OF_PERICENTER":189.9963,"MEAN_ANOMALY":176.4804,"EPHEMERIS_TYPE":0,"CLASSIFICATION_TYPE":"U","NORAD_CAT_ID":40549,"ELEMENT_SET_NO":999,"REV_AT_EPOCH":4052,"BSTAR":0,"MEAN_MOTION_DOT":-1.71e-6,"MEAN_MOTION_DDOT":0},{"OBJECT_NAME":"BEIDOU-3S M2S (C58)","OBJECT_ID":"2015-037A","EPOCH":"2026-04-26T05:44:30.499296","MEAN_MOTION":1.86231742,"ECCENTRICITY":0.0007401,"INCLINATION":54.9173,"RA_OF_ASC_NODE":303.8339,"ARG_OF_PERICENTER":271.2461,"MEAN_ANOMALY":88.6693,"EPHEMERIS_TYPE":0,"CLASSIFICATION_TYPE":"U","NORAD_CAT_ID":40748,"ELEMENT_SET_NO":999,"REV_AT_EPOCH":7315,"BSTAR":0,"MEAN_MOTION_DOT":-5.5e-7,"MEAN_MOTION_DDOT":0},{"OBJECT_NAME":"BEIDOU-3S M1S (C57)","OBJECT_ID":"2015-037B","EPOCH":"2026-04-25T09:06:05.082336","MEAN_MOTION":1.86254812,"ECCENTRICITY":0.00044572,"INCLINATION":54.9149,"RA_OF_ASC_NODE":303.8513,"ARG_OF_PERICENTER":51.4305,"MEAN_ANOMALY":308.6107,"EPHEMERIS_TYPE":0,"CLASSIFICATION_TYPE":"U","NORAD_CAT_ID":40749,"ELEMENT_SET_NO":999,"REV_AT_EPOCH":7314,"BSTAR":0,"MEAN_MOTION_DOT":-4.9e-7,"MEAN_MOTION_DDOT":0},{"OBJECT_NAME":"BEIDOU-3S IGSO-2S (C56)","OBJECT_ID":"2015-053A","EPOCH":"2026-04-25T20:37:21.645120","MEAN_MOTION":1.00271571,"ECCENTRICITY":0.00636644,"INCLINATION":49.3057,"RA_OF_ASC_NODE":259.4015,"ARG_OF_PERICENTER":190.0168,"MEAN_ANOMALY":170.5978,"EPHEMERIS_TYPE":0,"CLASSIFICATION_TYPE":"U","NORAD_CAT_ID":40938,"ELEMENT_SET_NO":999,"REV_AT_EPOCH":3883,"BSTAR":0,"MEAN_MOTION_DOT":-1.7e-6,"MEAN_MOTION_DDOT":0},{"OBJECT_NAME":"BEIDOU-2 IGSO-6 (C13)","OBJECT_ID":"2016-021A","EPOCH":"2026-04-22T20:32:03.319008","MEAN_MOTION":1.00270364,"ECCENTRICITY":0.00558668,"INCLINATION":60.1522,"RA_OF_ASC_NODE":38.5901,"ARG_OF_PERICENTER":232.0601,"MEAN_ANOMALY":343.5038,"EPHEMERIS_TYPE":0,"CLASSIFICATION_TYPE":"U","NORAD_CAT_ID":41434,"ELEMENT_SET_NO":999,"REV_AT_EPOCH":3692,"BSTAR":0,"MEAN_MOTION_DOT":-1.69e-6,"MEAN_MOTION_DDOT":0},{"OBJECT_NAME":"BEIDOU-2 G7 (C03)","OBJECT_ID":"2016-037A","EPOCH":"2026-04-26T12:26:08.049408","MEAN_MOTION":1.0026538,"ECCENTRICITY":0.0007692,"INCLINATION":1.5942,"RA_OF_ASC_NODE":68.8082,"ARG_OF_PERICENTER":354.3547,"MEAN_ANOMALY":88.3279,"EPHEMERIS_TYPE":0,"CLASSIFICATION_TYPE":"U","NORAD_CAT_ID":41586,"ELEMENT_SET_NO":999,"REV_AT_EPOCH":637,"BSTAR":0,"MEAN_MOTION_DOT":-3.63e-6,"MEAN_MOTION_DDOT":0}]
